0 DELTA 1 DEB
1 26845U 75052KZ  13281.15592957  .00000357  00000-0  14577-2 0  4785
2 26845 099.1795 349.8134 0440550 252.6048 102.6163 12.64345899874991
0 DELTA 1 DEB
1 26845U 75052KZ  13281.16233505  .00000228  00000-0  97403-3 0  4795
2 26845 099.1827 349.8254 0441880 252.6504 131.6939 12.64345080874999
0 DELTA 1 DEB
1 26845U 75052KZ  13293.11166079  .00000265  00000-0  11080-2 0  4814
2 26845 099.1842 359.3242 0442447 226.6976 160.9389 12.64354753876503
